TIANMU-1 07             
1 57399U 23101A   26065.57454230  .00008352  00000+0  29795-3 0  9991
2 57399  97.2728 118.5929 0004609 142.4105 217.7458 15.29118809145964
STARLINK-31410          
1 59179U 24045B   26068.45320963 -.00000150  00000+0  40978-5 0  9999
2 59179  43.0060  94.0186 0001537 287.7570  72.3113 15.27577428113129
